COSMOS 2532 (RODNIK-S *)
1 43753U 18097C   26200.30348300 -.00000131  00000+0 -10138-2 0  9999
2 43753  82.5112 202.1891 0017827 351.8812   8.1976 12.42910227346261
MINXSS-2                
1 43758U 18099A   26200.15408631  .00023640  00000+0  43720-3 0  9995
2 43758  97.4519 277.4240 0008830 148.4623 211.7159 15.49007241419077
SIRION PATHFINDER-2     
1 43759U 18099B   26200.08990212  .00002458  00000+0  13582-3 0  9996
2 43759  97.4232 248.3912 0008881 177.9232 182.2039 15.14795023417455
AISTECHSAT 2            
1 43768U 18099L   26200.10979594  .00002374  00000+0  12795-3 0  9991
2 43768  97.4273 247.4478 0005054 167.8563 192.2792 15.15735511417118
FOX-1CLIFF (AO-95)      
1 43770U 18099N   26200.12101160  .00006021  00000+0  22763-3 0  9991
2 43770  97.4363 260.2606 0007552 223.6290 136.4353 15.27321019418098
RANGE-A                 
1 43773U 18099R   26200.11070640  .00002020  00000+0  11592-3 0  9994
2 43773  97.3947 241.7580 0008938 229.2799 130.7657 15.13626060417326
SNUSAT-2                
1 43782U 18099AA  26200.08667682  .00004490  00000+0  19786-3 0  9994
2 43782  97.4038 252.9867 0010664 174.6907 185.4444 15.22274285417883
SNUGLITE                
1 43784U 18099AC  26200.11152285  .00006196  00000+0  23085-3 0  9990
2 43784  97.3846 254.0880 0003972 149.5930 210.5541 15.27808084418198
ITASAT                  
1 43786U 18099AE  26200.09749375  .00003335  00000+0  16054-3 0  9991
2 43786  97.4008 250.9769 0011115 234.9585 125.0608 15.19408070417752
EAGLET-I                
1 43790U 18099AJ  26200.12755185  .00001748  00000+0  10215-3 0  9995
2 43790  97.4211 248.9514 0009854 228.7919 131.2463 15.13150475417167
ESEO                    
1 43792U 18099AL  26200.10914157  .00001101  00000+0  83105-4 0  9993
2 43792  97.3963 236.1291 0011109 218.1510 141.8932 15.04332492416606
THEA                    
1 43796U 18099AQ  26200.13318036  .00010516  00000+0  30176-3 0  9993
2 43796  97.4421 270.1573 0008383 161.6445 198.5103 15.36019936417598
ASTROCAST 0.1           
1 43798U 18099AS  26200.26896563  .00021974  00000+0  37089-3 0  9995
2 43798  97.4363 279.8167 0005404 118.0397 242.1403 15.51643833419400
JY1SAT (JO-97)          
1 43803U 18099AX  26200.12106041  .00009568  00000+0  28756-3 0  9998
2 43803  97.4105 263.0849 0007161 146.3661 213.8038 15.34595342418526
SUOMI-100               
1 43804U 18099AY  26200.14780735  .00006320  00000+0  22615-3 0  9990
2 43804  97.4163 260.4344 0010916 159.3482 200.8202 15.29085912418305
CENTAURI-1              
1 43809U 18099BD  26200.14161660  .00002624  00000+0  13728-3 0  9993
2 43809  97.4199 251.1779 0013329 210.3790 149.6673 15.16646071417349
GLOBAL-2                
1 43812U 18099BG  26200.10812307  .00001785  00000+0  11717-3 0  9997
2 43812  97.3547 235.2945 0007151  56.4637 303.7274 15.08839207416729
SEAHAWK-1               
1 43820U 18099BQ  26200.13191331  .00004252  00000+0  18219-3 0  9992
2 43820  97.3935 252.1377 0008285 184.5088 175.6075 15.23275045417398
SAUDISAT 5A             
1 43831U 18102A   26200.31466888  .00002640  00000+0  98202-4 0  9991
2 43831  97.3045 261.2796 0010046  30.4588 329.7233 15.28344347420580
SAUDISAT 5B             
1 43833U 18102C   26200.32828477  .00002511  00000+0  92836-4 0  9994
2 43833  97.3155 264.4210 0010823  31.7093 328.4797 15.28586187420703
ISAT                    
1 43879U 18111D   26199.80804998  .00081425  00000+0  63369-3 0  9995
2 43879  97.5852 137.6108 0008268 132.9607 227.2350 15.71450890416122
UWE-4                   
1 43880U 18111E   26199.77857816  .00018634  00000+0  35827-3 0  9990
2 43880  97.5834 129.6699 0006675 180.9155 179.2083 15.47960214415667
D-STAR ONE (SPARROW)    
1 43881U 18111F   26199.79601725  .00204153  00000+0  79803-3 0  9994
2 43881  97.6079 143.9206 0008768 136.3743 223.8222 15.86443596416367
JILIN-1 09              
1 43943U 19005B   26200.29208532  .00002194  00000+0  10283-3 0  9991
2 43943  97.4743 294.9868 0001955  27.3380 332.7958 15.20760020414029
JILIN-1 10              
1 43946U 19005E   26200.25963831  .00003058  00000+0  12161-3 0  9997
2 43946  97.4794 299.0727 0008969 156.6723 203.4924 15.26032123414206
EGYPTSAT-A (MISRSAT-A)  
1 44047U 19008A   26200.28868159  .00000339  00000+0  61464-4 0  9993
2 44047  98.0175 264.6179 0001753  93.1572 266.9836 14.72339128397963
EMISAT                  
1 44078U 19018A   26200.30370284  .00000033  00000+0  22567-4 0  9990
2 44078  98.4626 258.9243 0019520 119.5630 240.7509 14.43650296384692
JILIN-1 GAOFEN 3A       
1 44312U 19032C   26200.27623091  .00006840  00000+0  21819-3 0  9990
2 44312  44.9737 180.2403 0004957 135.6447 224.4835 15.33244228392762
WT 1B                   
1 44316U 19032G   26200.24437661  .00004578  00000+0  17626-3 0  9994
2 44316  44.9724 245.8762 0008134  61.5282 298.6420 15.27767637391986
